*******************************************************************************
JPL/HORIZONS                  849 Ara (A915 UB)            2023-Sep-04 11:08:44
Rec #:     849 (+COV) Soln.date: 2023-Aug-24_21:18:06   # obs: 4405 (1919-2023)
 
IAU76/J2000 helio. ecliptic osc. elements (au, days, deg., period=Julian yrs):
 
  EPOCH=  2457288.5 ! 2015-Sep-23.00 (TDB)         Residual RMS= .28313
   EC= .1995142389816449   QR= 2.520246995898935   TP= 2457169.7018156145
   OM= 228.3742830397386   W=  63.3595955313572    IN= 19.52534213939012
   A= 3.148397034186778    MA= 20.95943808878494   ADIST= 3.776547072474621
   PER= 5.58653            N= .176428943           ANGMOM= .029909262
   DAN= 2.77484            DDN= 3.32009            L= 290.350013
   B= 17.3820594           MOID= 1.57054996        TP= 2015-May-27.2018156145
 
Asteroid physical parameters (km, seconds, rotational period in hours):
   GM= n.a.                RAD= 40.378             ROTPER= 4.116
   H= 8.2                  G= .150                 B-V= .701
                           ALBEDO= .186            STYP= M

ASTEROID comments: 
1: soln ref.= JPL#114, OCC=0
2: source=ORB
*******************************************************************************


*******************************************************************************
Ephemeris / API_USER Mon Sep  4 11:08:44 2023 Pasadena, USA      / Horizons
*******************************************************************************
Target body name: 849 Ara (A915 UB)               {source: JPL#114}
Center body name: Solar System Barycenter (0)     {source: DE441}
Center-site name: BODY CENTER
*******************************************************************************
Start time      : A.D. 2023-Aug-12 00:00:00.0000 TDB
Stop  time      : A.D. 2023-Aug-13 00:00:00.0000 TDB
Step-size       : 2880 minutes
*******************************************************************************
Center geodetic : 0.0, 0.0, 0.0                   {E-lon(deg),Lat(deg),Alt(km)}
Center cylindric: 0.0, 0.0, 0.0                   {E-lon(deg),Dxy(km),Dz(km)}
Center radii    : (undefined)
Small perturbers: Yes                             {source: SB441-N16}
Output units    : KM-S
Calendar mode   : Mixed Julian/Gregorian
Output type     : GEOMETRIC cartesian states
Output format   : 2 (position and velocity)
Reference frame : Ecliptic of J2000.0
*******************************************************************************
Initial IAU76/J2000 heliocentric ecliptic osculating elements (au, days, deg.):
  EPOCH=  2457288.5 ! 2015-Sep-23.00 (TDB)         Residual RMS= .28313        
   EC= .1995142389816449   QR= 2.520246995898935   TP= 2457169.7018156145      
   OM= 228.3742830397386   W=  63.3595955313572    IN= 19.52534213939012       
  Equivalent ICRF heliocentric cartesian coordinates (au, au/d):
   X= 1.959578013636490E+00  Y=-1.670223331599497E+00  Z= 2.136403944922677E-01
  VX= 7.750949600938203E-03 VY= 7.939811628440577E-03 VZ= 3.458240654101311E-03
Asteroid physical parameters (km, seconds, rotational period in hours):        
   GM= n.a.                RAD= 40.378             ROTPER= 4.116               
   H= 8.2                  G= .150                 B-V= .701                   
                           ALBEDO= .186            STYP= M                     
*******************************************************************************
JDTDB
   X     Y     Z
   VX    VY    VZ
*******************************************************************************
$$SOE
2460168.500000000 = A.D. 2023-Aug-12 00:00:00.0000 TDB 
 X =-1.215950922525370E+08 Y = 5.279060725856251E+08 Z =-1.565800994633479E+08
 VX=-1.304315578972574E+01 VY=-3.349883622165992E+00 VZ=-2.667964454771519E+00
$$EOE
*******************************************************************************
 
TIME

  Barycentric Dynamical Time ("TDB" or T_eph) output was requested. This
continuous coordinate time is equivalent to the relativistic proper time
of a clock at rest in a reference frame co-moving with the solar system
barycenter but outside the system's gravity well. It is the independent
variable in the solar system relativistic equations of motion.

  TDB runs at a uniform rate of one SI second per second and is independent
of irregularities in Earth's rotation.
 
CALENDAR SYSTEM

  Mixed calendar mode was active such that calendar dates after AD 1582-Oct-15
(if any) are in the modern Gregorian system. Dates prior to 1582-Oct-5 (if any)
are in the Julian calendar system, which is automatically extended for dates
prior to its adoption on 45-Jan-1 BC.  The Julian calendar is useful for
matching historical dates. The Gregorian calendar more accurately corresponds
to the Earth's orbital motion and seasons. A "Gregorian-only" calendar mode is
available if such physical events are the primary interest.

REFERENCE FRAME AND COORDINATES

  Ecliptic at the standard reference epoch

    Reference epoch: J2000.0
    X-Y plane: adopted Earth orbital plane at the reference epoch
               Note: IAU76 obliquity of 84381.448 arcseconds wrt ICRF X-Y plane
    X-axis   : ICRF
    Z-axis   : perpendicular to the X-Y plane in the directional (+ or -) sense
               of Earth's north pole at the reference epoch.

  Symbol meaning:

    JDTDB    Julian Day Number, Barycentric Dynamical Time
      X      X-component of position vector (km)
      Y      Y-component of position vector (km)
      Z      Z-component of position vector (km)
      VX     X-component of velocity vector (km/sec)                           
      VY     Y-component of velocity vector (km/sec)                           
      VZ     Z-component of velocity vector (km/sec)                           

ABERRATIONS AND CORRECTIONS

 Geometric state vectors have NO corrections or aberrations applied.

Computations by ...

    Solar System Dynamics Group, Horizons On-Line Ephemeris System
    4800 Oak Grove Drive, Jet Propulsion Laboratory
    Pasadena, CA  91109   USA

    General site: https://ssd.jpl.nasa.gov/
    Mailing list: https://ssd.jpl.nasa.gov/email_list.html
    System news : https://ssd.jpl.nasa.gov/horizons/news.html
    User Guide  : https://ssd.jpl.nasa.gov/horizons/manual.html
    Connect     : browser        https://ssd.jpl.nasa.gov/horizons/app.html#/x
                  API            https://ssd-api.jpl.nasa.gov/doc/horizons.html
                  command-line   telnet ssd.jpl.nasa.gov 6775
                  e-mail/batch   https://ssd.jpl.nasa.gov/ftp/ssd/hrzn_batch.txt
                  scripts        https://ssd.jpl.nasa.gov/ftp/ssd/SCRIPTS
    Author      : Jon.D.Giorgini@jpl.nasa.gov
*******************************************************************************
